SL-8 R/B                
1 19257U 88053B   26079.28408464  .00000270  00000+0  96084-4 0  9997
2 19257  74.0450  92.9360 0021543 270.8485 100.1148 14.38922585978123
COSMOS 1975             
1 19573U 88093A   26079.07082009  .00005547  00000+0  20021-3 0  9991
2 19573  82.5161 107.2610 0012995 129.3905 230.8488 15.28201276 20999
SL-14 R/B               
1 19574U 88093B   26079.31415197  .00000493  00000+0  53850-4 0  9999
2 19574  82.5327  32.0708 0020883   7.5124 108.8569 14.85668794  2596
SL-16 R/B               
1 19650U 88102B   26079.28823986 -.00000122  00000+0 -37483-4 0  9995
2 19650  70.9988 129.1977 0014711 345.1121  14.9567 14.16155907928393
INTERCOSMOS 24          
1 20261U 89080A   26079.28738038  .00000476  00000+0  14137-3 0  9994
2 20261  82.6016  97.5012 1186691 268.1968  78.3158 12.59572157668132
SL-14 R/B               
1 20262U 89080C   26079.27843283  .00000381  00000+0  10757-3 0  9992
2 20262  82.5967 166.3914 1230816 160.5561 204.7120 12.50504699661477
DELTA 1 R/B             
1 20323U 89089B   26079.10513982  .00000318  00000+0  86952-4 0  9992
2 20323  97.0697 284.8866 0070719  89.7093 271.2208 14.50671661897241
ARIANE 40 R/B           
1 20443U 90005H   26079.16768226  .00000205  00000+0  78512-4 0  9992
2 20443  98.3061 139.5158 0010514 166.9018 193.2446 14.39876846894316
DELTA 2 R/B(1)          
1 20453U 90008B   26079.14924541  .00054938  00000+0  62061-3 0  9991
2 20453  35.6026 106.1373 0081508 355.6437   4.3584 15.57257585927769
COSMOS 2058             
1 20465U 90010A   26078.97643388  .00003775  00000+0  22176-3 0  9990
2 20465  82.4675  37.2908 0007981 307.7366  52.3140 15.11407936943791
SL-14 R/B               
1 20466U 90010B   26079.00619664  .00000400  00000+0  45622-4 0  9990
2 20466  82.4987 257.6950 0018329 265.6455  94.2665 14.83577859930010
SL-14 R/B               
1 20511U 90018B   26078.83140945  .00000424  00000+0  50161-4 0  9990
2 20511  82.5221 213.6111 0017456  61.3004 298.9962 14.82155178924083
HST                     
1 20580U 90037B   26078.99068388  .00006738  00000+0  22019-3 0  9998
2 20580  28.4725 329.7224 0001538 237.6208 122.4239 15.29637314774898
SL-16 R/B               
1 20625U 90046B   26079.23028157  .00000073  00000+0  62199-4 0  9996
2 20625  70.9954 275.7753 0016210 285.6681  74.2653 14.15012018849880
COSMOS 2084             
1 20663U 90055A   26079.01599460  .00001858  00000+0  14152-3 0  9991
2 20663  62.7890 300.3574 0015502 192.8680 167.2027 15.05704406937871
SL-6 R/B(2)             
1 20666U 90055D   26078.81327359  .00001810  00000+0  14531-3 0  9996
2 20666  62.7827 219.4212 0026453 349.4230  10.6310 15.03641990939718
SL-8 R/B                
1 20775U 90078B   26079.19129618  .00010495  00000+0  30994-3 0  9992
2 20775  82.9006 241.8616 0360091 338.6324  20.0170 14.89374972810861
